KAZSAT-3                
1 39728U 14023B   19241.16040590  .00000041  00000-0  00000+0 0  9995
2 39728   0.0098 128.0890 0000644 336.4613 348.7626  1.00278771 19533
EUTELSAT 3B             
1 39773U 14030A   19241.09689844  .00000002  00000-0  00000+0 0  9993
2 39773   0.0647 356.3564 0004587 175.0062 203.6532  1.00269718 19314
ASIASAT 8               
1 40107U 14046A   19240.88260983 -.00000051  00000-0  00000-0 0  9994
2 40107   0.0300 257.7315 0001623 241.9756 150.9538  1.00271898 77240
ASIASAT 6               
1 40141U 14052A   19241.05882873 -.00000380  00000-0  00000+0 0  9991
2 40141   0.0354 262.4588 0000944 301.4067 274.1932  1.00269193 18252
OPTUS 10                
1 40146U 14054A   19241.37202325 -.00000166  00000-0  00000+0 0  9993
2 40146   0.0731 119.1858 0004207  45.6253 102.3864  1.00270650 18216
MEASAT-3B               
1 40147U 14054B   19240.90154000 -.00000259  00000-0  00000-0 0  9992
2 40147   0.0368 305.5269 0001344 243.6510 203.6521  1.00270830 17994
LUCH (OLYMP)            
1 40258U 14058A   19241.71333969 -.00000021  00000-0  00000+0 0  9998
2 40258   0.0563 250.4812 0000646 211.3677 198.4886  1.00271957 18038
HIMAWARI-8              
1 40267U 14060A   19240.98938317 -.00000293  00000-0  00000+0 0  9998
2 40267   0.0720 252.7864 0000758 330.5218 250.4127  1.00272058 17954
IRNSS-1C                
1 40269U 14061A   19240.84921278 -.00000180  00000-0  00000-0 0  9990
2 40269   1.9061 202.3343 0020335  11.8670 151.2521  1.00269005 17775
INTELSAT 30 (IS-30)     
1 40271U 14062A   19241.37323785 -.00000170  00000-0  00000+0 0  9990
2 40271   0.0089 107.4989 0001582 322.8013 306.2904  1.00271118 17863
ARSAT 1                 
1 40272U 14062B   19240.86900102 -.00000277  00000-0  00000-0 0  9997
2 40272   0.0321 227.4354 0001358 301.7005  48.6851  1.00270389 17700
EXPRESS-AM6             
1 40277U 14064A   19241.23382819  .00000079  00000-0  00000+0 0  9993
2 40277   0.0484 289.2981 0000418  13.9770 171.0420  1.00272937 17764
GSAT-16                 
1 40332U 14078A   19241.18147992  .00000066  00000-0  00000+0 0  9991
2 40332   0.0398 275.9197 0006106 183.9983 357.5647  1.00272979 17358
DIRECTV 14              
1 40333U 14078B   19240.86359240 -.00000142  00000-0  00000-0 0  9994
2 40333   0.0190 118.2665 0001684 229.6176 200.5374  1.00269691 17223
YAMAL 401               
1 40345U 14082A   19240.90127830 -.00000246  00000-0  00000-0 0  9990
2 40345   0.0109 145.1691 0000648 133.3212 112.7207  1.00272528 17003
ASTRA 2G                
1 40364U 14089A   19241.16100868  .00000131  00000-0  00000+0 0  9990
2 40364   0.0494 312.7818 0003114 142.6777 327.7596  1.00270656 17115
FENGYUN 2G              
1 40367U 14090A   19241.40564679 -.00000320  00000-0  00000+0 0  9997
2 40367   1.3955  99.4326 0002141 253.1789 230.0526  1.00281052 17130
MUOS-3                  
1 40374U 15002A   19241.05049601 -.00000142  00000-0  00000+0 0  9995
2 40374   3.1237 340.4402 0059248 179.7616 179.4016  1.00273361 16916
INMARSAT 5-F2           
1 40384U 15005A   19241.45049282 -.00000305  00000-0  00000+0 0  9999
2 40384   0.0275 136.3819 0000486 231.5129  76.6560  1.00267056 16775
ABS-3A                  
1 40424U 15010A   19241.30003819 -.00000045  00000-0  00000+0 0  9991
2 40424   0.0183 122.7562 0002779 314.4642   4.9953  1.00273210 16500
EUTELSAT 115 WEST B     
1 40425U 15010B   19240.61788060 -.00000041  00000-0  00000-0 0  9990
2 40425   0.0076 318.1613 0000392 148.0789 337.8189  1.00272087 16478
EXPRESS-AM7             
1 40505U 15012A   19241.23938250  .00000132  00000-0  00000+0 0  9997
2 40505   0.0143 129.7143 0002512  33.7611 299.8847  1.00275543 16452
IRNSS-1D                
1 40547U 15018A   19240.54666434 -.00000280  00000-0  00000+0 0  9999
2 40547  29.0787 282.1120 0021396 187.3501 175.6205  1.00273485 16336
BEIDOU 17               
1 40549U 15019A   19240.70659190 -.00000167  00000-0  00000-0 0  9996
2 40549  53.4709 324.5843 0037519 189.6824 170.4654  1.00295659 16173
THOR 7                  
1 40613U 15022A   19241.31396191 -.00000027  00000-0  00000+0 0  9993
2 40613   0.0134 187.2982 0002448 331.0234 291.2725  1.00271213 15916
TURKMENALEM52E/MONACOSAT
1 40617U 15023A   19241.16763729  .00000085  00000-0  00000+0 0  9999
2 40617   0.0202 143.9379 0002476   3.6569 301.8734  1.00273357 15929
DIRECTV 15              
1 40663U 15026A   19241.41198750 -.00000135  00000-0  00000+0 0  9994
2 40663   0.0115 140.3292 0001144  28.0686 216.4005  1.00275943 15633
SKY MEXICO-1            
1 40664U 15026B   19241.43429039 -.00000253  00000-0  00000+0 0  9995
2 40664   0.0268 136.8459 0001909  27.2357 250.8188  1.00266099 15639
METEOSAT-11 (MSG-4)     
1 40732U 15034A   19241.31404913 -.00000021  00000-0  00000+0 0  9994
2 40732   0.8998 253.6027 0002498 244.7985 311.9423  1.00276664 15123
STAR ONE C4             
1 40733U 15034B   19241.12873140 -.00000283  00000-0  00000+0 0  9996
2 40733   0.0494 312.9394 0000977 226.6691 133.7528  1.00269057 15119
WGS F7 (USA 263)        
1 40746U 15036A   19241.05935304 -.00000001  00000-0  00000+0 0  9993
2 40746   0.0180 116.9162 0000290  59.4016 356.9908  1.00272150 14962
INTELSAT 34 (IS-34)     
1 40874U 15039A   19241.31438251 -.00000304  00000-0  00000+0 0  9992
2 40874   0.0234 138.5000 0000219 208.5104  47.9033  1.00268724 14767
EUTELSAT 8 WEST B       
1 40875U 15039B   19240.88173747 -.00000083  00000-0  00000-0 0  9995
2 40875   0.0700 346.4097 0004188 155.9174 143.9019  1.00272659 14755
GSAT-6                  
1 40880U 15041A   19241.32688404 -.00000175  00000-0  00000+0 0  9996
2 40880   0.0232 230.2356 0005755  16.5982 290.1720  1.00271140 14724
INMARSAT 5-F3           
1 40882U 15042A   19241.47533890  .00000031  00000-0  00000+0 0  9993
2 40882   0.0145 120.7183 0000410 178.5702  28.8189  1.00268723 14641
MUOS-4                  
1 40887U 15044A   19240.89818876 -.00000106  00000-0  00000-0 0  9990
2 40887   3.2942 337.8120 0051204   0.7251  36.6761  1.00271494 14664
TJS-1                   
1 40892U 15046A   19241.23938528 -.00000174  00000-0  10000-3 0  9993
2 40892   0.0374 140.0641 0002364 258.9351 179.3860  1.00272528 14649
EXPRESS-AM8             
1 40895U 15048A   19240.88051616 -.00000129  00000-0  00000+0 0  9997
2 40895   0.0308 279.2419 0000406 357.6864   2.8636  1.00271994 14465
BEIDOU 20               
1 40938U 15053A   19241.34445745 -.00000088  00000-0  00000+0 0  9997
2 40938  53.0570 287.5681 0050526 182.5305  85.0004  1.00293302 14456
SKY MUSTER (NBN1A)      
1 40940U 15054A   19240.98938317 -.00000296  00000-0  00000+0 0  9993
2 40940   0.0158 213.1130 0001494 304.9624 315.2461  1.00270651 14368
ARSAT 2                 
1 40941U 15054B   19241.11368735 -.00000243  00000-0  00000+0 0  9993
2 40941   0.0296 221.7228 0001253 301.6300 133.6024  1.00270591 14408
MORELOS 3               
1 40946U 15056A   19241.36109573 -.00000058  00000-0  00000+0 0  9994
2 40946   5.2801 328.0617 0003397 184.4427 201.6411  1.00271714 14373
APSTAR 9                
1 40982U 15059A   19240.89091002 -.00000284  00000-0  00000-0 0  9993
2 40982   0.0707 282.7330 0000815 221.4038 295.3976  1.00269042 14222
TURKSAT 4B              
1 40984U 15060A   19241.18043309  .00000097  00000-0  00000+0 0  9997
2 40984   0.0184 143.1322 0001782  15.7914 293.1046  1.00269126 14200
CHINASAT 2C (ZX 2C)     
1 41021U 15063A   19240.90398262 -.00000341  00000-0  00000-0 0  9997
2 41021   0.0234 163.5629 0000414 178.6181  63.4536  1.00268125 14100
GSAT-15                 
1 41028U 15065A   19241.33271762 -.00000277  00000-0  00000+0 0  9996
2 41028   0.0660 280.3163 0001129 223.4420  46.7887  1.00271148 13954
BADR-7 (ARABSAT-6B)     
1 41029U 15065B   19241.31910882  .00000126  00000-0  00000+0 0  9990
2 41029   0.0511 262.6604 0005025 319.8575 255.5630  1.00271522 14002
LAOSAT 1                
1 41034U 15067A   19240.90535418 -.00000361  00000-0  00000-0 0  9993
2 41034   0.0374 285.6567 0001389 204.3516 301.2619  1.00270895 13951
TELSTAR 12V             
1 41036U 15068A   19239.33452773 -.00000131  00000-0  00000+0 0  9997
2 41036   0.0110 119.2223 0001830  39.3840 282.1036  1.00271744 13807
CHINASAT 1C (ZX 1C)     
1 41103U 15073A   19240.89962081 -.00000169  00000-0  00000-0 0  9991
2 41103   0.9296  95.3549 0001003 113.5343 173.3463  1.00271697 13763
ELEKTRO-L 2             
1 41105U 15074A   19241.03382679 -.00000115  00000-0  00000+0 0  9990
2 41105   0.5088 104.4656 0001266  37.5351 283.1941  1.00272426 13612
COSMOS 2513             
1 41121U 15075A   19240.89935911 -.00000156  00000-0  00000-0 0  9991
2 41121   0.0440 113.6599 0001333  22.0611 245.1090  1.00270852 13690
EXPRESS-AMU1            
1 41191U 15082A   19240.81927622  .00000138  00000-0  00000+0 0  9996
2 41191   0.0116 121.3882 0001842  51.4746 134.8960  1.00270403 13599
GAOFEN 4                
1 41194U 15083A   19241.40695534 -.00000353  00000-0  00000+0 0  9990
2 41194   0.0619 271.6999 0005590 300.0580  17.7445  1.00267921 13588
BELINTERSAT-1           
1 41238U 16001A   19240.82896654  .00000090  00000-0  00000+0 0  9998
2 41238   0.0315 274.5238 0001586 219.6478 192.4772  1.00270737 13336
IRNSS-1E                
1 41241U 16003A   19240.54657712 -.00000310  00000-0  00000+0 0  9999
2 41241  28.6120 101.0906 0020380 183.8503 359.9700  1.00267130 13288
EUTELSAT 9B             
1 41310U 16005A   19241.08174418  .00000043  00000-0  00000+0 0  9997
2 41310   0.0554  79.6969 0003250 178.0558 117.6661  1.00269881 13204
SES-9                   
1 41380U 16013A   19241.33568365 -.00000364  00000-0  00000+0 0  9996
2 41380   0.0515 282.5985 0001540 199.4843  84.3156  1.00271118 12849
EUTELSAT 65 WEST A      
1 41382U 16014A   19241.21111858 -.00000295  00000-0  00000+0 0  9990
2 41382   0.0531   6.2102 0001654 144.7315 197.0031  1.00271783 12745
